{
    "links": {
        "self": "http://www.neowsapp.com/rest/v1/neo/3836885?api_key=iIulBulltgU6a56xZRHN4H3l9WmuAYTsLGpBGhQ2"
    },
    "id": "3836885",
    "neo_reference_id": "3836885",
    "name": "(2018 XQ3)",
    "designation": "2018 XQ3",
    "nasa_jpl_url": "http://ssd.jpl.nasa.gov/sbdb.cgi?sstr=3836885",
    "absolute_magnitude_h": 22.7,
    "estimated_diameter": {
        "kilometers": {
            "estimated_diameter_min": 0.0766575574,
            "estimated_diameter_max": 0.1714115092
        },
        "meters": {
            "estimated_diameter_min": 76.6575573531,
            "estimated_diameter_max": 171.4115092306
        },
        "miles": {
            "estimated_diameter_min": 0.0476327831,
            "estimated_diameter_max": 0.1065101409
        },
        "feet": {
            "estimated_diameter_min": 251.5011804664,
            "estimated_diameter_max": 562.3737359442
        }
    },
    "is_potentially_hazardous_asteroid": false,
    "close_approach_data": [
        {
            "close_approach_date": "2018-12-09",
            "close_approach_date_full": "2018-Dec-09 05:27",
            "epoch_date_close_approach": 1544333220000,
            "relative_velocity": {
                "kilometers_per_second": "32.6551900911",
                "kilometers_per_hour": "117558.6843280352",
                "miles_per_hour": "73046.3947148283"
            },
            "miss_distance": {
                "astronomical": "0.2988737952",
                "lunar": "116.2619063328",
                "kilometers": "44710883.160736224",
                "miles": "27782054.5250949312"
            },
            "orbiting_body": "Earth"
        }
    ],
    "orbital_data": {
        "orbit_id": "1",
        "orbit_determination_date": "2018-12-14 09:12:02",
        "first_observation_date": "2018-12-10",
        "last_observation_date": "2018-12-13",
        "data_arc_in_days": 3,
        "observations_used": 22,
        "orbit_uncertainty": "9",
        "minimum_orbit_intersection": ".297512",
        "jupiter_tisserand_invariant": "2.647",
        "epoch_osculation": "2458463.5",
        "eccentricity": ".4822981313700596",
        "semi_major_axis": "2.47469321982051",
        "inclination": "63.22001259631589",
        "ascending_node_longitude": "76.01514193991329",
        "orbital_period": "1421.937407501428",
        "perihelion_distance": "1.281153304186922",
        "perihelion_argument": "4.984621098195058",
        "aphelion_distance": "3.668233135454099",
        "perihelion_time": "2458468.336699568111",
        "mean_anomaly": "358.7754651960528",
        "mean_motion": ".2531757010546461",
        "equinox": "J2000",
        "orbit_class": {
            "orbit_class_type": "AMO",
            "orbit_class_description": "Near-Earth asteroid orbits similar to that of 1221 Amor",
            "orbit_class_range": "1.017 AU < q (perihelion) < 1.3 AU"
        }
    },
    "is_sentry_object": false
}